{
  "type": "FeatureCollection",
  "features": [
    {
      "type": "Feature",
      "properties": {
        "name": "Argent Lakes Pub & Pizzeria (AL's Pub)",
        "address": "1291 Sergeant William Jasper Blvd, Okatie, SC 29909",
        "category": "Dining",
        "marker-symbol": "utensils",
        "marker-color": "#E53935"
      },
      "geometry": {
        "coordinates": [-80.9546639783161, 32.30913432724512],
        "type": "Point"
      },
      "id": 0
    },
    {
      "type": "Feature",
      "properties": {
        "name": "Argent Lakes Dog Park",
        "address": "1021 Sgt. William Jasper Blvd, Okatie, SC 29909",
        "category": "Dog Park",
        "marker-symbol": "dog",
        "marker-color": "#F57C00"
      },
      "geometry": {
        "coordinates": [-80.9566940357343, 32.309755000295134],
        "type": "Point"
      },
      "id": 1
    },    
    {
      "type": "Feature",
      "properties": {
        "name": "Argent Lakes Golf Clubhouse",
        "address": "1251 Sgt. William Jasper Blvd, Okatie, SC 29909",
        "category": "Golf Clubhouse",
        "marker-symbol": "flag",
        "marker-color": "#2E7D32"
      },
      "geometry": {
        "coordinates": [-80.95463975739277, 32.30900186500873],
        "type": "Point"
      },
      "id": 2
    },    
    {
      "type": "Feature",
      "properties": {
        "name": "Barataria Outdoor Pool",
        "address": "122 Del Webb Blvd, Okatie, SC 29909",
        "category": "Pool",
        "marker-symbol": "person-swimming",
        "marker-color": "#0288D1"
      },
      "geometry": {
        "coordinates": [-80.95276666003797, 32.294520050803904],
        "type": "Point"
      },
      "id": 3
    },    
    {
      "type": "Feature",
      "properties": {
        "name": "Boat and RV Park/Campsite",
        "address": "25 Okatie Maintenance Yard Road, Okatie, SC 29909",
        "category": "Recreation",
        "marker-symbol": "person-hiking",
        "marker-color": "#1E88E5"
      },
      "geometry": {
        "coordinates": [-80.94732272863969, 32.27871892796357],
        "type": "Point"
      },
      "id": 4
    },    
    {
      "type": "Feature",
      "properties": {
        "name": "Hidden Cypress",
        "address": "673 Cypress Hills Drive, Okatie, SC 29909",
        "category": "Amenity Center",
        "marker-symbol": "building",
        "marker-color": "#8E24AA"
      },
      "geometry": {
        "coordinates": [-80.97892086003841, 32.27795337898009],
        "type": "Point"
      },
      "id": 5
    },    
    {
      "type": "Feature",
      "properties": {
        "name": "Hidden Cypress Golf Clubhouse",
        "address": "672 Cypress Hills Drive, Okatie, SC 29909",
        "category": "Golf Clubhouse",
        "marker-symbol": "flag",
        "marker-color": "#2E7D32"
      },
      "geometry": {
        "coordinates": [-80.97925156233778, 32.277831061455515],
        "type": "Point"
      },
      "id": 6
    },    
    {
      "type": "Feature",
      "properties": {
        "name": "Hidden Cypress Outdoor Pool",
        "address": "672 Cypress Hills Drive, Okatie, SC 29909",
        "category": "Pool",
        "marker-symbol": "person-swimming",
        "marker-color": "#0288D1"
      },
      "geometry": {
        "coordinates": [-80.97817380844737, 32.27788627969718],
        "type": "Point"
      },
      "id": 7
    },    
    {
      "type": "Feature",
      "properties": {
        "name": "Jameson’s Charhouse",
        "address": "672 Cypress Hills Drive, Okatie, SC 29909",
        "category": "Dining",
        "marker-symbol": "utensils",
        "marker-color": "#E53935"
      },
      "geometry": {
        "coordinates": [-80.97951764100245, 32.279034642723104],
        "type": "Point"
      },
      "id": 8
    },    
    {
      "type": "Feature",
      "properties": {
        "name": "Lake Somerset",
        "address": "2 Del Webb Blvd, Okatie, SC 29909",
        "category": "Gate",
        "marker-symbol": "door-closed",
        "marker-color": "#6D4C41"
      },
      "geometry": {
        "coordinates": [-80.94286245269029, 32.286730634804314],
        "type": "Point"
      },
      "id": 9
    },    
    {
      "type": "Feature",
      "properties": {
        "name": "Lakehouse",
        "address": "1251 Sgt. William Jasper Blvd, Okatie, SC 29909",
        "category": "Amenity Center",
        "marker-symbol": "building",
        "marker-color": "#8E24AA"
      },
      "geometry": {
        "coordinates": [-80.95523397191732, 32.31187222309927],
        "type": "Point"
      },
      "id": 10
    },    
    {
      "type": "Feature",
      "properties": {
        "name": "Lakehouse Outdoor Pool",
        "address": "1251 Sgt. William Jasper Blvd, Okatie, SC 29909",
        "category": "Pool",
        "marker-symbol": "person-swimming",
        "marker-color": "#0288D1"
      },
      "geometry": {
        "coordinates": [-80.95523397191732, 32.31187222309927],
        "type": "Point"
      },
      "id": 11
    },    
    {
      "type": "Feature",
      "properties": {
        "name": "Logo Building",
        "address": "124 Del Webb Blvd, Okatie, SC 29909",
        "category": "Tennis",
        "marker-symbol": "table-tennis-paddle-ball",
        "marker-color": "#43A047"
      },
      "geometry": {
        "coordinates": [-80.95318582494781, 32.29417925066891],
        "type": "Point"
      },
      "id": 12
    },    
    {
      "type": "Feature",
      "properties": {
        "name": "Magnolia Hall",
        "address": "118 Sun City Lane, Okatie, SC 29909",
        "category": "Recreation",
        "marker-symbol": "person-hiking",
        "marker-color": "#1E88E5"
      },
      "geometry": {
        "coordinates": [-80.95261837041492, 32.29296618407857],
        "type": "Point"
      },
      "id": 13
    },    
    {
      "type": "Feature",
      "properties": {
        "name": "South Gate",
        "address": "1 Sun City Blvd, Okatie, SC 29909",
        "category": "Gate",
        "marker-symbol": "door-closed",
        "marker-color": "#6D4C41"
      },
      "geometry": {
        "coordinates": [-80.95606003256361, 32.29971140969949],
        "type": "Point"
      },
      "id": 14
    },    
    {
      "type": "Feature",
      "properties": {
        "name": "Mulching Center",
        "address": "851 Red Dam Road, Okatie, SC 29909",
        "category": "Ecocenter",
        "marker-symbol": "leaf",
        "marker-color": "#388E3C"
      },
      "geometry": {
        "coordinates": [-80.96781673120307, 32.27734146385746],
        "type": "Point"
      },
      "id": 15
    },    
    {
      "type": "Feature",
      "properties": {
        "name": "Nature Trail",
        "address": "Between Col. T. Heyward Rd. and Sun  City Blvd, Okatie, SC 29909",
        "category": "Recreation",
        "marker-symbol": "person-hiking",
        "marker-color": "#1E88E5"
      },
      "geometry": {
        "coordinates": [-80.9664602900654, 32.286987222408065],
        "type": "Point"
      },
      "id": 16
    },    
    {
      "type": "Feature",
      "properties": {
        "name": "New River Sports Park",
        "address": "831 Red Dam Road , Okatie, SC 29909",
        "category": "Recreation",
        "marker-symbol": "person-hiking",
        "marker-color": "#1E88E5"
      },
      "geometry": {
        "coordinates": [-80.97194546003838, 32.27726309305376],
        "type": "Point"
      },
      "id": 17
    },    
    {
      "type": "Feature",
      "properties": {
        "name": "North Gate",
        "address": "401 West Fording Island Road, Okatie, SC 29909",
        "category": "Gate",
        "marker-symbol": "door-closed",
        "marker-color": "#6D4C41"
      },
      "geometry": {
        "coordinates": [-80.95583586618888, 32.30221014136519],
        "type": "Point"
      },
      "id": 18
    },    
    {
      "type": "Feature",
      "properties": {
        "name": "Okatie Creek Clubhouse",
        "address": "60 Sun City Club Lane, Okatie, SC 29909",
        "category": "Dining",
        "marker-symbol": "utensils",
        "marker-color": "#E53935"
      },
      "geometry": {
        "coordinates": [-80.9520389600381, 32.28974650477646],
        "type": "Point"
      },
      "id": 19
    },    
    {
      "type": "Feature",
      "properties": {
        "name": "Okatie Farms Andover",
        "address": "51 Andover Place, Okatie, SC 29909",
        "category": "Ecocenter",
        "marker-symbol": "leaf",
        "marker-color": "#388E3C"
      },
      "geometry": {
        "coordinates": [-80.97750743120294, 32.2847963290672],
        "type": "Point"
      },
      "id": 20
    },    
    {
      "type": "Feature",
      "properties": {
        "name": "Okatie Farms East",
        "address": "301 Sun City Blvd, Okatie, SC 29909",
        "category": "Ecocenter",
        "marker-symbol": "leaf",
        "marker-color": "#388E3C"
      },
      "geometry": {
        "coordinates": [-80.9717101023677, 32.27980820010664],
        "type": "Point"
      },
      "id": 21
    },    
    {
      "type": "Feature",
      "properties": {
        "name": "Okatie Farms West",
        "address": "300 Sun City Blvd, Okatie, SC 29909",
        "category": "Ecocenter",
        "marker-symbol": "leaf",
        "marker-color": "#388E3C"
      },
      "geometry": {
        "coordinates": [-80.97207238887364, 32.280086240845705],
        "type": "Point"
      },
      "id": 22
    },    
    {
      "type": "Feature",
      "properties": {
        "name": "Palmetto Commons",
        "address": "127 Sun City Lane, Okatie, SC 29909",
        "category": "Administration",
        "marker-symbol": "briefcase",
        "marker-color": "#546E7A"
      },
      "geometry": {
        "coordinates": [-80.95085399441535, 32.290701043476915],
        "type": "Point"
      },
      "id": 23
    },    
    {
      "type": "Feature",
      "properties": {
        "name": "Pavilion",
        "address": "114B Sun City Lane, Okatie, SC 29909",
        "category": "Recreation",
        "marker-symbol": "person-hiking",
        "marker-color": "#1E88E5"
      },
      "geometry": {
        "coordinates": [-80.95255750489238, 32.29362004197021],
        "type": "Point"
      },
      "id": 24
    },    
    {
      "type": "Feature",
      "properties": {
        "name": "Lakehouse Pickleball Courts",
        "address": "1251 Sgt. William Jasper Blvd, Okatie, SC 29909",
        "category": "Pickleball",
        "marker-symbol": "table-tennis-paddle-ball",
        "marker-color": "#FFB300"
      },
      "geometry": {
        "coordinates": [-80.95404300028856, 32.30931800042232],
        "type": "Point"
      },
      "id": 25
    },    
    {
      "type": "Feature",
      "properties": {
        "name": "New River Sports Park Pickleball Courts",
        "address": "831 Red Dam Road, Okatie, SC 29909",
        "category": "Pickleball",
        "marker-symbol": "table-tennis-paddle-ball",
        "marker-color": "#FFB300"
      },
      "geometry": {
        "coordinates": [-80.97194546003838, 32.27726309305376],
        "type": "Point"
      },
      "id": 26
    },    
    {
      "type": "Feature",
      "properties": {
        "name": "Pinckney Hall",
        "address": "114 Sun City Lane, Okatie, SC 29909",
        "category": "Recreation",
        "marker-symbol": "person-hiking",
        "marker-color": "#1E88E5"
      },
      "geometry": {
        "coordinates": [-80.95168256300602, 32.293227727801124],
        "type": "Point"
      },
      "id": 27
    },    
    {
      "type": "Feature",
      "properties": {
        "name": "Purrysburg Fitness Center",
        "address": "122 Del Webb Blvd, Okatie, SC 29909",
        "category": "Amenity Center",
        "marker-symbol": "building",
        "marker-color": "#8E24AA"
      },
      "geometry": {
        "coordinates": [-80.95275024571373, 32.29441752783469],
        "type": "Point"
      },
      "id": 28
    },    
    {
      "type": "Feature",
      "properties": {
        "name": "Red Dam Dog Park",
        "address": "839 Red Dam Road, Okatie, SC 29909",
        "category": "Dog Park",
        "marker-symbol": "dog",
        "marker-color": "#F57C00"
      },
      "geometry": {
        "coordinates": [-80.9701712330667, 32.27719226557305],
        "type": "Point"
      },
      "id": 29
    },    
    {
      "type": "Feature",
      "properties": {
        "name": "Riverbend Gate",
        "address": "1 Tidewatch Drive, Okatie, SC 29909",
        "category": "Gate",
        "marker-symbol": "door-closed",
        "marker-color": "#6D4C41"
      },
      "geometry": {
        "coordinates": [-80.9343930415489, 32.311540816840015],
        "type": "Point"
      },
      "id": 30
    },    
    {
      "type": "Feature",
      "properties": {
        "name": "Riverbend Lodge",
        "address": "39 Tidewatch Drive, Okatie, SC 29909",
        "category": "Amenity Center",
        "marker-symbol": "building",
        "marker-color": "#8E24AA"
      },
      "geometry": {
        "coordinates": [-80.92971269313692, 32.30760136097624],
        "type": "Point"
      },
      "id": 31
    },    
    {
      "type": "Feature",
      "properties": {
        "name": "Riverbend Outdoor Pool",
        "address": "39 Tidewatch Drive, Okatie, SC 29909",
        "category": "Pool",
        "marker-symbol": "person-swimming",
        "marker-color": "#0288D1"
      },
      "geometry": {
        "coordinates": [-80.92971269313692, 32.30760136097624],
        "type": "Point"
      },
      "id": 32
    },    
    {
      "type": "Feature",
      "properties": {
        "name": "Sun City West Dog Park",
        "address": "Sundance Drive, Okatie, SC 29909",
        "category": "Dog Park",
        "marker-symbol": "dog",
        "marker-color": "#F57C00"
      },
      "geometry": {
        "coordinates": [-80.96873984974086, 32.32493660787278],
        "type": "Point"
      },
      "id": 33
    },    
    {
      "type": "Feature",
      "properties": {
        "name": "Sun City West Gate",
        "address": "434 Sundance Drive, Okatie, SC 29909",
        "category": "Gate",
        "marker-symbol": "door-closed",
        "marker-color": "#6D4C41"
      },
      "geometry": {
        "coordinates": [-80.95978232462046, 32.31749587366806],
        "type": "Point"
      },
      "id": 34
    },    
    {
      "type": "Feature",
      "properties": {
        "name": "Lakehouse Tennis Courts",
        "address": "1251 Sgt. William Jasper Blvd, Okatie, SC 29909",
        "category": "Tennis",
        "marker-symbol": "table-tennis-paddle-ball",
        "marker-color": "#43A047"
      },
      "geometry": {
        "coordinates": [-80.954191849268, 32.30969001837694],
        "type": "Point"
      },
      "id": 35
    },    
    {
      "type": "Feature",
      "properties": {
        "name": "Town Square Tennis Courts",
        "address": "124 Del Webb Blvd, Okatie, SC 29909",
        "category": "Tennis",
        "marker-symbol": "table-tennis-paddle-ball",
        "marker-color": "#43A047"
      },
      "geometry": {
        "coordinates": [-80.95366953812885, 32.29380760543188],
        "type": "Point"
      },
      "id": 36
    },    
    {
      "type": "Feature",
      "properties": {
        "name": "Veterans Memorial Field",
        "address": "831 Red Dam Roa, Okatie, SC 29909",
        "category": "Softball",
        "marker-symbol": "baseball-ball",
        "marker-color": "#FDD835"
      },
      "geometry": {
        "coordinates": [-80.97189634469004, 32.27708037742499],
        "type": "Point"
      },
      "id": 37
    },    
    {
      "type": "Feature",
      "properties": {
        "name": "Volleyball Courts",
        "address": "831 Red Dam Road, Okatie, SC 29909",
        "category": "Volleyball",
        "marker-symbol": "volleyball-ball",
        "marker-color": "#039BE5"
      },
      "geometry": {
        "coordinates": [-80.97194546003838, 32.27726309305376],
        "type": "Point"
      },
      "id": 38
    },    
    {
      "type": "Feature",
      "properties": {
        "name": "Woodworkers' Shop",
        "address": "841 Red Dam Road, Okatie, SC 29909",
        "category": "Woodworking",
        "marker-symbol": "hammer",
        "marker-color": "#795548 "
      },
      "geometry": {
        "coordinates": [-80.96919847043243, 32.276748318279346],
        "type": "Point"
      },
      "id": 39
    },    
    {
      "type": "Feature",
      "properties": {
        "name": "Yemassee Crafts Center",
        "address": "132 Del Webb Blvd, Okatie, SC 29909",
        "category": "Crafts",
        "marker-symbol": "palette",
        "marker-color": "#D81B60"
      },
      "geometry": {
        "coordinates": [-80.9518584707094, 32.293939738194894],
        "type": "Point"
      },
      "id": 40
    },
    {
      "type": "Feature",
      "properties": {
        "name": "Okatie Creek Golf Clubhouse",
        "address": "60 Sun City Club Ln, Okatie, SC 29909",
        "category": "Golf Clubhouse",
        "marker-symbol": "flag",
        "marker-color": "#2E7D32"
      },
      "geometry": {
        "coordinates": [-80.9519110396051, 32.289453460356285],
        "type": "Point"
      },
      "id": 41
    },    
    {
      "type": "Feature",
      "properties": {
        "name": "The Clubhouse at Okatie Creek",
        "address": "60 Sun City Club Ln, Okatie, SC 29909",
        "category": "Dining",
        "marker-symbol": "utensils",
        "marker-color": "#E53935"
      },
      "geometry": {
        "coordinates": [-80.95197354807156, 32.289434772269395],
        "type": "Point"
      },
      "id": 42
    },
    {
      "type": "Feature",
      "properties": {
        "name": "Town Square Bocce Ball Courts",
        "address": "60 Sun City Club Ln, Okatie, SC 29909",
        "category": "Bocce",
        "marker-symbol": "circle-dot ",
        "marker-color": "#B71C1C"
      },
      "geometry": {
        "coordinates": [-80.95280702736781, 32.29397874907641],
        "type": "Point"
      },
      "id": 43
    },
    {
      "type": "Feature",
      "properties": {
        "name": "Computer Club",
        "address": "128 Del Webb Blvd, Okatie, SC 29909",
        "category": "Computer",
        "marker-symbol": "computer",
        "marker-color": "#3F51B5"
      },
      "geometry": {
        "coordinates": [-80.95176599663787, 32.294169680605805],
        "type": "Point"
      },
      "id": 44
    },
  ]
}